{"fetched_at":"2026-06-07T17:16:16Z","count":6268,"tles":[{"name":"ZHUHAI-1 02 (CAS-4B)","line1":"1 42759U 17034B   25286.97241530  .03437790  89859-5  10544-2 0  9999","line2":"2 42759  42.9888 273.3261 0008256 129.3938 230.7682 16.25684504462559","category":"Other"},{"name":"FUNCUBE-1 (AO-73)","line1":"1 39444U 13066AE  26157.18462751  .00009267  00000+0  57636-3 0  9998","line2":"2 39444  97.8278 128.4023 0034656 239.5624 120.2179 15.09358417678008","category":"Other"},{"name":"ICEYE-X12","line1":"1 48914U 21059AM  23362.42981525  .00016602  00000+0  78320-3 0  9992","line2":"2 48914  97.6141 134.5462 0001769 318.3531  41.7569 15.19543383138486","category":"Other"},{"name":"COSMOS 2542","line1":"1 44797U 19079A   23297.23228983  .16154547  26690-5  82721-3 0  9991","line2":"2 44797  97.6189  44.3452 0008269 277.8821 166.3779 16.42095543216406","category":"Other"},{"name":"FALCON 9 DEB","line1":"1 56560U 23065BK  23174.50174993  .04697057  91757-5  71731-3 0  9997","line2":"2 56560  42.9906 192.1100 0004261 276.3494  83.6911 16.33147507  7233","category":"Other"},{"name":"GAOFEN-8","line1":"1 40701U 15030A   26157.92439116  .00022028  00000+0  45882-3 0  9990","line2":"2 40701  97.6917 350.6813 0007985 224.9365 135.1237 15.45584556609868","category":"Other"},{"name":"XW-2F","line1":"1 40910U 15049M   24092.20923921  .16747303  26701-5  28112-3 0  9997","line2":"2 40910  97.4046 122.6776 0010391 231.3491 128.6883 16.47481859473827","category":"Other"},{"name":"FLOCK 4V-8","line1":"1 46288U 20061S   23361.75051452  .00025122  00000+0  77935-3 0  9996","line2":"2 46288  97.3803  69.6297 0003550  99.8344 260.3299 15.33381380183366","category":"Other"},{"name":"SL-3 R/B","line1":"1 10114U 77057B   26157.80827178  .00012998  00000+0  25326-3 0  9994","line2":"2 10114  97.5843 333.8485 0005970 330.5427  29.5485 15.47664836682104","category":"Other"},{"name":"LYRA-3","line1":"1 64577U 25135BB  26157.91411414  .00001617  00000+0  24991-3 0  9993","line2":"2 64577  97.7728 263.3371 0021143  19.6176 340.5842 14.74454245 51751","category":"Other"},{"name":"1998-067XJ","line1":"1 65730U 98067XJ  25336.82362581  .06330363  11931-4  22859-2 0  9996","line2":"2 65730  51.6061 180.4655 0010114 256.3912 103.5981 16.23931094 11687","category":"Other"},{"name":"ION SCV-004","line1":"1 50993U 22002K   26157.83856122  .00006292  00000+0  21669-3 0  9993","line2":"2 50993  97.2834 215.6921 0008267  42.1588 318.0288 15.30349332243718","category":"Other"},{"name":"SKYSAT-C2","line1":"1 41773U 16058D   26157.81121890  .00013941  00000+0  33047-3 0  9990","line2":"2 41773  97.0172 180.2986 0005228  92.7811 267.4036 15.41831952543457","category":"Other"},{"name":"MR-2","line1":"1 67556U 26015A   26157.55154209  .00000067  00000+0  82708-4 0  9996","line2":"2 67556  88.9999 269.6144 0005266 104.9679 255.2057 13.52693406 18273","category":"Other"},{"name":"CSTP 1.2 (STC 1.2)","line1":"1 57186U 23091W   26157.96476628  .00010032  00000+0  35974-3 0  9997","line2":"2 57186  97.5148 224.1263 0019683 127.4222 232.8812 15.28732736162896","category":"Other"},{"name":"ARIRANG-5 (KOMPSAT-5)","line1":"1 39227U 13042A   26157.92369094  .00002394  00000+0  17509-3 0  9998","line2":"2 39227  97.6211 344.7683 0004031 147.6614 212.4860 15.04553415702312","category":"Other"},{"name":"CORAL","line1":"1 67684U 98067YA  26157.78953640  .00204590  00000+0  14394-2 0  9996","line2":"2 67684  51.6246 341.6012 0010112 190.0317 170.0481 15.72897328 18721","category":"Other"},{"name":"UWE-3","line1":"1 39446U 13066AG  26157.65461373  .00005074  00000+0  43622-3 0  9993","line2":"2 39446  97.8693 113.6587 0049030 356.7161   3.3731 14.96941234676005","category":"Other"},{"name":"BRO-15","line1":"1 60553U 24149CP  26157.94510403  .00001120  00000+0  10454-3 0  9996","line2":"2 60553  97.6797 233.5177 0009498 118.4616 241.7563 14.96116347 98479","category":"Other"},{"name":"2026-027C","line1":"1 67748U 26027C   26157.60523575  .00005497  00000+0  26775-3 0  9997","line2":"2 67748  97.5064 285.8626 0009271 253.6872 106.3343 15.18735878 17353","category":"Other"},{"name":"SL-4 R/B","line1":"1 39679U 14021B   26157.56385594  .00015814  00000+0  32507-3 0  9996","line2":"2 39679  51.6055 262.8077 0091597  67.3204 293.7434 15.41723399669976","category":"Other"},{"name":"BEIDOU-3 M4","line1":"1 43207U 18018A   26156.92524065 -.00000038  00000+0  00000+0 0  9997","line2":"2 43207  56.6408  63.5205 0007646  14.5676 345.4822  1.86231485 56535","category":"GPS"},{"name":"IOD-1","line1":"1 63212U 25052C   26157.66359146  .00068485  00000+0  11169-2 0  9999","line2":"2 63212  97.3834  59.0614 0004084 119.5339 240.6322 15.52367438 68852","category":"Other"},{"name":"CANX-4","line1":"1 40055U 14034C   26157.95170602  .00001015  00000+0  13745-3 0  9996","line2":"2 40055  98.3134  32.8885 0013807  48.0751 312.1635 14.81245872643019","category":"Other"},{"name":"TIANQI-24","line1":"1 57795U 23135D   26157.91297669  .00000145  00000+0  13358-3 0  9999","line2":"2 57795  49.9719 196.0136 0014363 226.3105 133.6618 14.23141502143162","category":"Other"},{"name":"UNICORN-2O","line1":"1 63980U 25052BS  26046.23064614  .07374698  24226-5  45213-2 0  9996","line2":"2 63980  97.3693 306.5452 0009140 143.6049 216.5862 16.18030447 51696","category":"Other"},{"name":"STARLINK-36817","line1":"1 67882U 26035D   26157.53602574  .00040847  00000+0  12591-2 0  9992","line2":"2 67882  97.2840  90.8860 0000592 195.1673 164.9552 15.33487440 17607","category":"Starlink"},{"name":"RADUGA-1M 2","line1":"1 36358U 10002A   26105.23111369  .00000070  00000+0  00000+0 0  9993","line2":"2 36358   3.4562  79.6137 0007598 259.6129 191.7733  0.98964553 49400","category":"Other"},{"name":"BIRKELAND","line1":"1 55015U 23001G   26157.94495824  .00009977  00000+0  25272-3 0  9990","line2":"2 55015  97.3344 225.8900 0008110 134.5203 225.6707 15.39896245190777","category":"Other"},{"name":"ALSAT-2A","line1":"1 36798U 10035D   26157.90466472  .00000934  00000+0  14769-3 0  9996","line2":"2 36798  97.7628 160.9015 0001138  80.5632 279.5706 14.74466574852248","category":"Other"},{"name":"GITAI-SC1","line1":"1 62388U 24247M   26157.87234328  .00006274  00000+0  28762-3 0  9990","line2":"2 62388  45.0040   7.4123 0001450 249.8519 110.2206 15.21280165 81166","category":"Other"},{"name":"JILIN-1 GAOFEN 3H","line1":"1 46460U 20065G   26157.90223623  .00076494  00000+0  73573-3 0  9998","line2":"2 46460  97.2223 210.6912 0005225  42.3042 317.8621 15.66312346318273","category":"Other"},{"name":"R5-S2","line1":"1 60207U 24125E   26157.81294582  .00019537  00000+0  41988-3 0  9996","line2":"2 60207  97.2379   9.7886 0014035 265.9506  94.0139 15.44605338107584","category":"Other"},{"name":"PCSAT (NO-44)","line1":"1 26931U 01043C   26157.61264853  .00000160  00000+0  90579-4 0  9995","line2":"2 26931  67.0513 271.6217 0006117 264.1922  95.8483 14.31952422288932","category":"Other"},{"name":"AFR-1","line1":"1 56964U 23084AJ  26157.95434389  .00005146  00000+0  18828-3 0  9998","line2":"2 56964  97.6263 294.4008 0010889  22.9651 337.2072 15.28468849165666","category":"Other"},{"name":"CZ-2C R/B","line1":"1 52794U 22058K   26156.46722230  .00039184  00000+0  44813-3 0  9997","line2":"2 52794  50.1841 224.4658 0033215 218.6451 141.2145 15.61032214223819","category":"Other"},{"name":"ORBCOMM FM112","line1":"1 41184U 15081F   26157.73300495  .00000775  00000+0  20013-3 0  9992","line2":"2 41184  47.0002 319.6813 0003017 170.7204 189.3739 14.58889083557423","category":"Other"},{"name":"SL-3 R/B","line1":"1 13068U 82013B   26157.97179962  .00003742  00000+0  15846-3 0  9995","line2":"2 13068  81.1745  56.0472 0020786 236.6827 123.2415 15.22723687417932","category":"Other"},{"name":"COSMOS 1536","line1":"1 14699U 84013A   26157.86069654  .00005899  00000+0  23499-3 0  9990","line2":"2 14699  82.5450  19.1295 0013424 335.2123  24.8468 15.24945151286202","category":"Other"},{"name":"ALTAIR (RS65S)","line1":"1 61779U 24199AW  26157.95530589  .00012990  00000+0  36217-3 0  9992","line2":"2 61779  97.3040  27.3743 0012186 351.4866   8.6170 15.36819972135543","category":"Other"},{"name":"HINODE (SOLAR-B)","line1":"1 29479U 06041A   26157.76115670  .00000851  00000+0  15472-3 0  9991","line2":"2 29479  98.0549 174.0673 0016522 325.4032  34.6097 14.68608687 53349","category":"Other"},{"name":"CZ-2C R/B","line1":"1 31114U 07010B   26157.56309736  .00000113  00000+0  70506-4 0  9994","line2":"2 31114  98.4090 266.4343 0059635  36.8440 323.6813 14.20273789992338","category":"Other"},{"name":"ION SCV-002","line1":"1 47504U 21006CV  26157.73406664  .00016286  00000+0  36077-3 0  9994","line2":"2 47504  97.1125 159.8813 0012427 146.3908 213.8131 15.43763559298410","category":"Other"},{"name":"WNISAT 1R","line1":"1 42835U 17042L   26157.69743180  .00002927  00000+0  22930-3 0  9993","line2":"2 42835  97.4834 314.1957 0009894 184.4170 175.6970 15.01717179484936","category":"Other"},{"name":"LEMUR-2-DEANANDMAEVE","line1":"1 66678U 25276N   26157.45011831  .00008600  00000+0  40674-3 0  9996","line2":"2 66678  97.4208 231.1049 0006706  49.1401 311.0414 15.19599967 28783","category":"Other"},{"name":"CARTOSAT-2A","line1":"1 32783U 08021A   26157.89991917  .00001020  00000+0  14395-3 0  9995","line2":"2 32783  97.7634 206.9594 0012580 139.0183 221.1977 14.79223828977285","category":"Other"},{"name":"GOSAT (IBUKI)","line1":"1 33492U 09002A   26157.57012544  .00000052  00000+0  17705-4 0  9991","line2":"2 33492  98.0880 268.7848 0001545  91.3741 268.7641 14.67539173929908","category":"Other"},{"name":"QB50P2","line1":"1 40032U 14033Y   26157.79725213  .00009361  00000+0  50440-3 0  9991","line2":"2 40032  98.0756 154.0321 0006914 197.9731 162.1256 15.15026362651094","category":"Other"},{"name":"ZHUHAI-1 OHS-02","line1":"1 43441U 18040C   26157.92027494  .00008764  00000+0  34588-3 0  9992","line2":"2 43441  97.0377 182.6890 0007289 264.7109  95.3299 15.25731419112717","category":"Other"}]}